[{"OBJECT_NAME":"STARLINK-3518","OBJECT_ID":"2022-016U","EPOCH":"2026-03-09T22:16:30.904608","MEAN_MOTION":15.08831596,"ECCENTRICITY":0.00020824,"INCLINATION":53.2202,"RA_OF_ASC_NODE":318.0543,"ARG_OF_PERICENTER":95.3717,"MEAN_ANOMALY":264.7513,"EPHEMERIS_TYPE":0,"CLASSIFICATION_TYPE":"U","NORAD_CAT_ID":51732,"ELEMENT_SET_NO":999,"REV_AT_EPOCH":22474,"BSTAR":2.3749512e-5,"MEAN_MOTION_DOT":9.0e-7,"MEAN_MOTION_DDOT":0},{"OBJECT_NAME":"UNKNOWN","OBJECT_ID":"","EPOCH":"2026-03-07T17:21:07.805664","MEAN_MOTION":15.09455608,"ECCENTRICITY":0.0009057,"INCLINATION":82.8696,"RA_OF_ASC_NODE":177.6495,"ARG_OF_PERICENTER":167.3062,"MEAN_ANOMALY":192.8398,"EPHEMERIS_TYPE":0,"CLASSIFICATION_TYPE":"U","NORAD_CAT_ID":87725,"ELEMENT_SET_NO":999,"REV_AT_EPOCH":64668,"BSTAR":0.0060116,"MEAN_MOTION_DOT":0.00097492,"MEAN_MOTION_DDOT":0}]
